SITRO-AIS 27            
1 59068U 24039T   24095.62147142  .00003406  00000+0  33612-3 0  9993
2 59068  95.3972  47.6060 0172286 235.2956 123.1931 14.81838980  5214
SITRO-AIS 28            
1 59071U 24039U   24095.62060536  .00003268  00000+0  32243-3 0  9993
2 59071  95.3973  47.6073 0172157 235.2905 123.1996 14.81873571  5210
